[{"OBJECT_NAME":"GEESAT-5 10","OBJECT_ID":"2025-201K","EPOCH":"2026-03-09T16:31:10.209504","MEAN_MOTION":14.83772929,"ECCENTRICITY":0.00080977,"INCLINATION":49.9812,"RA_OF_ASC_NODE":140.3139,"ARG_OF_PERICENTER":261.0647,"MEAN_ANOMALY":98.9375,"EPHEMERIS_TYPE":0,"CLASSIFICATION_TYPE":"U","NORAD_CAT_ID":65559,"ELEMENT_SET_NO":999,"REV_AT_EPOCH":2702,"BSTAR":0.00035102112,"MEAN_MOTION_DOT":2.712e-5,"MEAN_MOTION_DDOT":0},{"OBJECT_NAME":"COSMOS 2251 DEB","OBJECT_ID":"1993-036YX","EPOCH":"2026-03-09T18:53:05.462592","MEAN_MOTION":14.85753016,"ECCENTRICITY":0.00171354,"INCLINATION":74.0159,"RA_OF_ASC_NODE":185.6001,"ARG_OF_PERICENTER":288.5177,"MEAN_ANOMALY":199.591,"EPHEMERIS_TYPE":0,"CLASSIFICATION_TYPE":"U","NORAD_CAT_ID":34729,"ELEMENT_SET_NO":999,"REV_AT_EPOCH":89749,"BSTAR":0.001986522,"MEAN_MOTION_DOT":0.00017313,"MEAN_MOTION_DDOT":0}]
